[{"OBJECT_NAME":"HELIOS 1B","OBJECT_ID":"1999-064A","EPOCH":"2026-03-16T17:00:31.476960","MEAN_MOTION":14.87727265,"ECCENTRICITY":0.0002288,"INCLINATION":98.1689,"RA_OF_ASC_NODE":338.1581,"ARG_OF_PERICENTER":64.8779,"MEAN_ANOMALY":295.2674,"EPHEMERIS_TYPE":0,"CLASSIFICATION_TYPE":"U","NORAD_CAT_ID":25977,"ELEMENT_SET_NO":999,"REV_AT_EPOCH":68630,"BSTAR":0.00018208,"MEAN_MOTION_DOT":1.601e-5,"MEAN_MOTION_DDOT":0},{"OBJECT_NAME":"TERRA","OBJECT_ID":"1999-068A","EPOCH":"2026-03-16T20:20:09.017376","MEAN_MOTION":14.61022498,"ECCENTRICITY":0.0003122,"INCLINATION":97.9578,"RA_OF_ASC_NODE":129.0081,"ARG_OF_PERICENTER":135.8144,"MEAN_ANOMALY":335.3019,"EPHEMERIS_TYPE":0,"CLASSIFICATION_TYPE":"U","NORAD_CAT_ID":25994,"ELEMENT_SET_NO":999,"REV_AT_EPOCH":39612,"BSTAR":9.1791e-5,"MEAN_MOTION_DOT":4.06e-6,"MEAN_MOTION_DDOT":0},{"OBJECT_NAME":"SL-16 R/B","OBJECT_ID":"2000-006B","EPOCH":"2026-03-16T17:23:03.807168","MEAN_MOTION":14.15824248,"ECCENTRICITY":0.0016372,"INCLINATION":71.0003,"RA_OF_ASC_NODE":83.0443,"ARG_OF_PERICENTER":179.4274,"MEAN_ANOMALY":180.6871,"EPHEMERIS_TYPE":0,"CLASSIFICATION_TYPE":"U","NORAD_CAT_ID":26070,"ELEMENT_SET_NO":999,"REV_AT_EPOCH":34955,"BSTAR":-7.0211e-5,"MEAN_MOTION_DOT":-1.86e-6,"MEAN_MOTION_DDOT":0},{"OBJECT_NAME":"TITAN 4B R/B","OBJECT_ID":"2000-047B","EPOCH":"2026-03-16T20:27:12.213216","MEAN_MOTION":15.09636547,"ECCENTRICITY":0.0038805,"INCLINATION":67.9909,"RA_OF_ASC_NODE":20.3679,"ARG_OF_PERICENTER":26.8845,"MEAN_ANOMALY":333.4303,"EPHEMERIS_TYPE":0,"CLASSIFICATION_TYPE":"U","NORAD_CAT_ID":26474,"ELEMENT_SET_NO":999,"REV_AT_EPOCH":39399,"BSTAR":0.00024101,"MEAN_MOTION_DOT":3.819e-5,"MEAN_MOTION_DDOT":0},{"OBJECT_NAME":"ENVISAT","OBJECT_ID":"2002-009A","EPOCH":"2026-03-16T19:59:33.925920","MEAN_MOTION":14.39039566,"ECCENTRICITY":0.0001304,"INCLINATION":98.3739,"RA_OF_ASC_NODE":29.2607,"ARG_OF_PERICENTER":82.6085,"MEAN_ANOMALY":285.601,"EPHEMERIS_TYPE":0,"CLASSIFICATION_TYPE":"U","NORAD_CAT_ID":27386,"ELEMENT_SET_NO":999,"REV_AT_EPOCH":26020,"BSTAR":4.6606e-5,"MEAN_MOTION_DOT":1.01e-6,"MEAN_MOTION_DDOT":0},{"OBJECT_NAME":"IDEFIX & ARIANE 42P R/B","OBJECT_ID":"2002-021B","EPOCH":"2026-03-16T20:05:55.360320","MEAN_MOTION":14.31031169,"ECCENTRICITY":0.0011999,"INCLINATION":98.5877,"RA_OF_ASC_NODE":14.3586,"ARG_OF_PERICENTER":161.0961,"MEAN_ANOMALY":199.067,"EPHEMERIS_TYPE":0,"CLASSIFICATION_TYPE":"U","NORAD_CAT_ID":27422,"ELEMENT_SET_NO":999,"REV_AT_EPOCH":24504,"BSTAR":0.00011001,"MEAN_MOTION_DOT":2.46e-6,"MEAN_MOTION_DDOT":0},{"OBJECT_NAME":"AQUA","OBJECT_ID":"2002-022A","EPOCH":"2026-03-16T20:45:18.665568","MEAN_MOTION":14.61994526,"ECCENTRICITY":6.66e-5,"INCLINATION":98.4186,"RA_OF_ASC_NODE":43.3611,"ARG_OF_PERICENTER":106.5065,"MEAN_ANOMALY":282.9875,"EPHEMERIS_TYPE":0,"CLASSIFICATION_TYPE":"U","NORAD_CAT_ID":27424,"ELEMENT_SET_NO":999,"REV_AT_EPOCH":26978,"BSTAR":0.00020375,"MEAN_MOTION_DOT":9.72e-6,"MEAN_MOTION_DDOT":0},{"OBJECT_NAME":"CZ-4B R/B","OBJECT_ID":"2002-024C","EPOCH":"2026-03-16T03:44:50.429472","MEAN_MOTION":14.14548838,"ECCENTRICITY":0.00501695,"INCLINATION":98.8825,"RA_OF_ASC_NODE":128.5298,"ARG_OF_PERICENTER":5.9184,"MEAN_ANOMALY":57.3216,"EPHEMERIS_TYPE":0,"CLASSIFICATION_TYPE":"U","NORAD_CAT_ID":27432,"ELEMENT_SET_NO":999,"REV_AT_EPOCH":23015,"BSTAR":4.3466768e-5,"MEAN_MOTION_DOT":4.0e-7,"MEAN_MOTION_DDOT":0},{"OBJECT_NAME":"MIDORI II (ADEOS-II)","OBJECT_ID":"2002-056A","EPOCH":"2026-03-16T20:58:48.313920","MEAN_MOTION":14.29290773,"ECCENTRICITY":0.0001307,"INCLINATION":98.7779,"RA_OF_ASC_NODE":34.4019,"ARG_OF_PERICENTER":34.2532,"MEAN_ANOMALY":325.8734,"EPHEMERIS_TYPE":0,"CLASSIFICATION_TYPE":"U","NORAD_CAT_ID":27597,"ELEMENT_SET_NO":999,"REV_AT_EPOCH":21132,"BSTAR":0.00012509,"MEAN_MOTION_DOT":2.73e-6,"MEAN_MOTION_DDOT":0},{"OBJECT_NAME":"H-2A R/B","OBJECT_ID":"2002-056E","EPOCH":"2026-03-16T21:18:30.343680","MEAN_MOTION":14.33765485,"ECCENTRICITY":0.0070909,"INCLINATION":98.3214,"RA_OF_ASC_NODE":35.9799,"ARG_OF_PERICENTER":139.3884,"MEAN_ANOMALY":242.944,"EPHEMERIS_TYPE":0,"CLASSIFICATION_TYPE":"U","NORAD_CAT_ID":27601,"ELEMENT_SET_NO":999,"REV_AT_EPOCH":21514,"BSTAR":9.3554e-5,"MEAN_MOTION_DOT":2.26e-6,"MEAN_MOTION_DDOT":0},{"OBJECT_NAME":"CZ-4B R/B","OBJECT_ID":"2003-049C","EPOCH":"2026-03-16T21:06:03.182400","MEAN_MOTION":14.55027043,"ECCENTRICITY":0.0047568,"INCLINATION":98.6883,"RA_OF_ASC_NODE":71.0664,"ARG_OF_PERICENTER":208.5739,"MEAN_ANOMALY":151.2849,"EPHEMERIS_TYPE":0,"CLASSIFICATION_TYPE":"U","NORAD_CAT_ID":28059,"ELEMENT_SET_NO":999,"REV_AT_EPOCH":18764,"BSTAR":8.566e-5,"MEAN_MOTION_DOT":3.23e-6,"MEAN_MOTION_DDOT":0},{"OBJECT_NAME":"CZ-2C R/B","OBJECT_ID":"2004-012C","EPOCH":"2026-03-16T15:25:33.873024","MEAN_MOTION":15.65382493,"ECCENTRICITY":0.0012936,"INCLINATION":97.7217,"RA_OF_ASC_NODE":141.5982,"ARG_OF_PERICENTER":281.2149,"MEAN_ANOMALY":78.7656,"EPHEMERIS_TYPE":0,"CLASSIFICATION_TYPE":"U","NORAD_CAT_ID":28222,"ELEMENT_SET_NO":999,"REV_AT_EPOCH":20536,"BSTAR":0.0005169,"MEAN_MOTION_DOT":0.00051783,"MEAN_MOTION_DDOT":0},{"OBJECT_NAME":"SL-16 R/B","OBJECT_ID":"2004-021B","EPOCH":"2026-03-16T19:28:00.845760","MEAN_MOTION":14.14594945,"ECCENTRICITY":0.0004431,"INCLINATION":70.9997,"RA_OF_ASC_NODE":217.5469,"ARG_OF_PERICENTER":0.01,"MEAN_ANOMALY":0.1022,"EPHEMERIS_TYPE":0,"CLASSIFICATION_TYPE":"U","NORAD_CAT_ID":28353,"ELEMENT_SET_NO":999,"REV_AT_EPOCH":12384,"BSTAR":-0.00011864,"MEAN_MOTION_DOT":-2.76e-6,"MEAN_MOTION_DDOT":0},{"OBJECT_NAME":"CZ-4B R/B","OBJECT_ID":"2004-035C","EPOCH":"2026-03-16T20:17:48.932736","MEAN_MOTION":15.29195345,"ECCENTRICITY":0.0030288,"INCLINATION":97.349,"RA_OF_ASC_NODE":110.0028,"ARG_OF_PERICENTER":305.0259,"MEAN_ANOMALY":54.814,"EPHEMERIS_TYPE":0,"CLASSIFICATION_TYPE":"U","NORAD_CAT_ID":28415,"ELEMENT_SET_NO":999,"REV_AT_EPOCH":18100,"BSTAR":0.0002514,"MEAN_MOTION_DOT":7.143e-5,"MEAN_MOTION_DDOT":0},{"OBJECT_NAME":"CZ-2C R/B","OBJECT_ID":"2004-046B","EPOCH":"2026-03-16T18:40:12.007200","MEAN_MOTION":14.26994629,"ECCENTRICITY":0.0140277,"INCLINATION":98.1981,"RA_OF_ASC_NODE":350.3205,"ARG_OF_PERICENTER":133.5713,"MEAN_ANOMALY":227.7216,"EPHEMERIS_TYPE":0,"CLASSIFICATION_TYPE":"U","NORAD_CAT_ID":28480,"ELEMENT_SET_NO":999,"REV_AT_EPOCH":10951,"BSTAR":5.932e-5,"MEAN_MOTION_DOT":1.2e-6,"MEAN_MOTION_DDOT":0},{"OBJECT_NAME":"ARIANE 5 R/B","OBJECT_ID":"2004-049H","EPOCH":"2026-03-16T16:57:03.542400","MEAN_MOTION":14.85278883,"ECCENTRICITY":0.0083447,"INCLINATION":98.2638,"RA_OF_ASC_NODE":244.4264,"ARG_OF_PERICENTER":329.0698,"MEAN_ANOMALY":30.5615,"EPHEMERIS_TYPE":0,"CLASSIFICATION_TYPE":"U","NORAD_CAT_ID":28499,"ELEMENT_SET_NO":999,"REV_AT_EPOCH":14683,"BSTAR":8.6674e-5,"MEAN_MOTION_DOT":7.26e-6,"MEAN_MOTION_DDOT":0},{"OBJECT_NAME":"CZ-2D R/B","OBJECT_ID":"2005-024B","EPOCH":"2026-03-16T18:18:52.951968","MEAN_MOTION":15.60813874,"ECCENTRICITY":0.0004622,"INCLINATION":97.3589,"RA_OF_ASC_NODE":91.1719,"ARG_OF_PERICENTER":27.9041,"MEAN_ANOMALY":332.2463,"EPHEMERIS_TYPE":0,"CLASSIFICATION_TYPE":"U","NORAD_CAT_ID":28738,"ELEMENT_SET_NO":999,"REV_AT_EPOCH":14088,"BSTAR":0.00045902,"MEAN_MOTION_DOT":0.00038266,"MEAN_MOTION_DDOT":0}]
